H1 CPF 01  gfz 2022 08 24 00  7361 terrasarx 
H2 0702601  6201 31698    2022 08 24 00 59 42 2022 08 29 00 00 42   120 1 1  0 0 0
H9
10 0 59816  33102.000000  0   -2517844.768   1544521.690  -6230078.611
10 0 59816  33222.000000  0   -2999926.877   2200923.277  -5804552.715
10 0 59816  33342.000000  0   -3418737.428   2827021.622  -5277597.666
10 0 59816  33462.000000  0   -3767588.770   3410740.058  -4658333.240
10 0 59816  33582.000000  0   -4041196.576   3940608.114  -3957505.921
10 0 59816  33702.000000  0   -4235764.424   4405989.531  -3187311.186
10 0 59816  33822.000000  0   -4349040.189   4797300.312  -2361189.094
10 0 59816  33942.000000  0   -4380343.866   5106211.084  -1493593.870
10 0 59816  34062.000000  0   -4330564.826   5325829.713   -599741.746
10 0 59816  34182.000000  0   -4202126.772   5450858.854    304660.873
10 0 59816  34302.000000  0   -3998920.590   5477721.377   1203699.850
10 0 59816  34422.000000  0   -3726208.073   5404653.959   2081542.718
10 0 59816  34542.000000  0   -3390496.864   5231761.836   2922728.128
10 0 59816  34662.000000  0   -2999389.312   4961035.120   3712445.925
10 0 59816  34782.000000  0   -2561412.152   4596327.845   4436802.573
10 0 59816  34902.000000  0   -2085830.243   4143299.865   5083068.575
10 0 59816  35022.000000  0   -1582449.351   3609322.655   5639902.334
10 0 59816  35142.000000  0   -1061411.941   3003351.806   6097546.314
10 0 59816  35262.000000  0    -532991.648   2335769.532   6447992.317
10 0 59816  35382.000000  0      -7391.256   1618201.894   6685114.626
10 0 59816  35502.000000  0     505453.662    863313.475   6804772.079
10 0 59816  35622.000000  0     996061.944     84582.390   6804874.992
10 0 59816  35742.000000  0    1455580.925   -703939.208   6685419.603
10 0 59816  35862.000000  0    1875945.654  -1487878.291   6448488.949
10 0 59816  35982.000000  0    2250020.631  -2252802.029   6098219.109
10 0 59816  36102.000000  0    2571722.352  -2984484.275   5640732.364
10 0 59816  36222.000000  0    2836120.358  -3669172.322   5084035.582
10 0 59816  36342.000000  0    3039514.263  -4293848.806   4437885.791
10 0 59816  36462.000000  0    3179486.915  -4846485.135   3713624.552
10 0 59816  36582.000000  0    3254931.042  -5316279.926   2923980.970
10 0 59816  36702.000000  0    3266049.178  -5693877.525   2082848.142
10 0 59816  36822.000000  0    3214325.512  -5971561.000   1205035.424
10 0 59816  36942.000000  0    3102471.338  -6143413.655    306002.406
10 0 59816  37062.000000  0    2934346.093  -6205446.878   -598419.661
10 0 59816  37182.000000  0    2714853.852  -6155690.804  -1492316.815
10 0 59816  37302.000000  0    2449817.793  -5994241.238  -2359981.138
10 0 59816  37422.000000  0    2145838.164  -5723266.940  -3186193.530
10 0 59816  37542.000000  0    1810134.678  -5346974.830  -3956496.500
10 0 59816  37662.000000  0    1450379.497  -4871532.985  -4657447.122
10 0 59816  37782.000000  0    1074526.728  -4304957.496  -5276847.165
10 0 59816  37902.000000  0     690640.794  -3656966.942  -5803948.253
10 0 59816  38022.000000  0     306727.339  -2938806.631  -6229628.836
10 0 59816  38142.000000  0     -69429.653  -2163047.399  -6546540.563
10 0 59816  38262.000000  0    -430421.322  -1343363.132  -6749223.922
10 0 59816  38382.000000  0    -769355.119   -494290.844  -6834193.005
10 0 59816  38502.000000  0   -1079982.075    369023.650  -6799988.684
10 0 59816  38622.000000  0   -1356809.066   1231089.297  -6647199.848
10 0 59816  38742.000000  0   -1595193.651   2076340.739  -6378454.234
10 0 59816  38862.000000  0   -1791420.437   2889412.189  -5998378.577
10 0 59816  38982.000000  0   -1942759.148   3655413.054  -5513528.522
10 0 59816  39102.000000  0   -2047502.082   4360199.408  -4932286.181
10 0 59816  39222.000000  0   -2104981.428   4990638.211  -4264726.967
10 0 59816  39342.000000  0   -2115565.072   5534858.133  -3522454.285
10 0 59816  39462.000000  0   -2080630.214   5982480.649  -2718405.657
10 0 59816  39582.000000  0   -2002515.423   6324828.161  -1866633.346
10 0 59816  39702.000000  0   -1884452.665   6555103.548   -982059.971
10 0 59816  39822.000000  0   -1730479.735   6668534.418    -80215.580
10 0 59816  39942.000000  0   -1545335.136   6662481.625    823039.225
10 0 59816  40062.000000  0   -1334337.752   6536505.292   1711802.981
10 0 59816  40182.000000  0   -1103253.615   6292381.895   2570424.074
10 0 59816  40302.000000  0    -858154.285   5934077.286   3383783.646
10 0 59816  40422.000000  0    -605270.889   5467677.663   4137567.260
10 0 59816  40542.000000  0    -350847.548   4901279.867   4818522.064
10 0 59816  40662.000000  0    -100995.731   4244838.189   5414692.311
10 0 59816  40782.000000  0     138445.091   3509980.052   5915624.268
10 0 59816  40902.000000  0     362036.684   2709792.335   6312546.802
10 0 59816  41022.000000  0     564859.882   1858580.895   6598518.718
10 0 59816  41142.000000  0     742618.505    971610.589   6768544.306
10 0 59816  41262.000000  0     891727.242     64829.180   6819654.609
10 0 59816  41382.000000  0    1009382.327   -845418.176   6750956.070
10 0 59816  41502.000000  0    1093613.786  -1742683.190   6563646.324
10 0 59816  41622.000000  0    1143318.543  -2610711.250   6260994.973
10 0 59816  41742.000000  0    1158273.822  -3433737.164   5848290.471
10 0 59816  41862.000000  0    1139129.811  -4196773.902   5332751.439
10 0 59816  41982.000000  0    1087383.808  -4885887.914   4723405.782
10 0 59816  42102.000000  0    1005335.309  -5488459.608   4030939.739
10 0 59816  42222.000000  0     896022.478  -5993424.557   3267514.982
10 0 59816  42342.000000  0     763141.468  -6391486.813   2446555.746
10 0 59816  42462.000000  0     610949.375  -6675299.479   1582511.462
10 0 59816  42582.000000  0     444153.834  -6839608.844    690598.967
10 0 59816  42702.000000  0     267792.021  -6881359.887   -213472.464
10 0 59816  42822.000000  0      87100.926  -6799755.223  -1113788.718
10 0 59816  42942.000000  0     -92615.685  -6596266.508  -1994520.325
10 0 59816  43062.000000  0    -266120.686  -6274601.301  -2840207.522
10 0 59816  43182.000000  0    -428374.456  -5840626.757  -3636036.724
10 0 59816  43302.000000  0    -574660.142  -5302250.948  -4368102.791
10 0 59816  43422.000000  0    -700699.802  -4669265.069  -5023650.112
10 0 59816  43542.000000  0    -802758.900  -3953153.405  -5591288.750
10 0 59816  43662.000000  0    -877736.853  -3166875.048  -6061183.743
10 0 59816  43782.000000  0    -923241.897  -2324622.425  -6425215.046
10 0 59816  43902.000000  0    -937649.283  -1441561.558  -6677106.293
10 0 59816  44022.000000  0    -920142.095   -533559.952  -6812522.246
10 0 59816  44142.000000  0    -870733.995    383094.787  -6829135.553
10 0 59816  44262.000000  0    -790273.015   1291980.518  -6726661.170
10 0 59816  44382.000000  0    -680427.341   2176827.006  -6506860.662
10 0 59816  44502.000000  0    -543653.238   3021799.814  -6173515.634
10 0 59816  44622.000000  0    -383144.631   3811779.579  -5732371.055
10 0 59816  44742.000000  0    -202765.143   4532631.625  -5191045.800
10 0 59816  44862.000000  0      -6964.123   5171460.892  -4558912.616
10 0 59816  44982.000000  0     199322.046   5716849.587  -3846946.900
10 0 59816  45102.000000  0     410782.074   6159070.900  -3067544.932
10 0 59816  45222.000000  0     621853.010   6490274.015  -2234314.642
10 0 59816  45342.000000  0     826852.094   6704636.636  -1361841.063
10 0 59816  45462.000000  0    1020114.167   6798479.609   -465429.774
10 0 59816  45582.000000  0    1196131.325   6770340.051    439166.423
10 0 59816  45702.000000  0    1349691.071   6620999.465   1336031.869
10 0 59816  45822.000000  0    1476008.360   6353466.933   2209375.834
10 0 59816  45942.000000  0    1570849.035   5972918.807   3043818.577
10 0 59816  46062.000000  0    1630642.059   5486595.489   3824669.820
10 0 59816  46182.000000  0    1652576.703   4903656.353   4538193.715
10 0 59816  46302.000000  0    1634683.662   4234997.675   5171854.443
10 0 59816  46422.000000  0    1575895.103   3493036.632   5714535.653
10 0 59816  46542.000000  0    1476085.810   2691473.013   6156729.788
10 0 59816  46662.000000  0    1336093.658   1845030.070   6490700.402
10 0 59816  46782.000000  0    1157718.998    969178.777   6710611.822
10 0 59816  46902.000000  0     943703.130     79852.353   6812624.097
10 0 59816  47022.000000  0     697686.473   -806842.200   6794955.860
10 0 59816  47142.000000  0     424146.480  -1674915.631   6657915.069
10 0 59816  47262.000000  0     128316.054  -2508784.647   6403893.975
10 0 59816  47382.000000  0    -183916.142  -3293552.700   6037329.869
10 0 59816  47502.000000  0    -506120.633  -4015277.243   5564629.644
10 0 59816  47622.000000  0    -831455.753  -4661218.488   4994063.792
10 0 59816  47742.000000  0   -1152809.177  -5220070.396   4335630.841
10 0 59816  47862.000000  0   -1462950.442  -5682169.060   3600887.604
10 0 59816  47982.000000  0   -1754689.384  -6039669.620   2802747.600
10 0 59816  48102.000000  0   -2021037.888  -6286688.250   1955253.981
10 0 59816  48222.000000  0   -2255371.396  -6419406.918   1073329.179
10 0 59816  48342.000000  0   -2451584.289  -6436136.849    172505.564
10 0 59816  48462.000000  0   -2604236.054  -6337339.483   -731356.232
10 0 59816  48582.000000  0   -2708684.639  -6125603.875  -1622355.436
10 0 59816  48702.000000  0   -2761203.936  -5805581.239  -2484839.203
10 0 59816  48822.000000  0   -2759082.217  -5383878.569  -3303684.647
10 0 59816  48942.000000  0   -2700698.590  -4868913.626  -4064568.312
10 0 59816  49062.000000  0   -2585575.937  -4270736.407  -4754216.206
10 0 59816  49182.000000  0   -2414410.111  -3600823.441  -5360630.662
10 0 59816  49302.000000  0   -2189075.585  -2871849.888  -5873291.542
10 0 59816  49422.000000  0   -1912607.325  -2097444.083  -6283329.487
10 0 59816  49542.000000  0   -1589158.633  -1291929.489  -6583668.460
99
